[Satellite]
VERSION=1.1
NAME=FLOCK 2K-39
NICKNAME=FLOCK 2K-39
TLE1=1 42866U 17042AT  18020.68406235  .00009748  00000-0  28500-3 0  9991
TLE2=2 42866  96.9934 284.7356 0009408 291.6783  68.3459 15.35423936 28994
